OBJECT_NAME,OBJECT_ID,EPOCH,MEAN_MOTION,ECCENTRICITY,INCLINATION,RA_OF_ASC_NODE,ARG_OF_PERICENTER,MEAN_ANOMALY,EPHEMERIS_TYPE,CLASSIFICATION_TYPE,NORAD_CAT_ID,ELEMENT_SET_NO,REV_AT_EPOCH,BSTAR,MEAN_MOTION_DOT,MEAN_MOTION_DDOT
STARLINK-5184,2022-136AN,2023-05-28T23:03:02.699424,15.08839979,.0001005,53.2172,213.8959,87.2380,272.8727,0,U,54087,999,3411,.73781E-4,.887E-5,0
STARLINK-5153,2022-136AP,2023-05-29T04:05:06.834336,15.08843352,.0001137,53.2151,213.0704,91.7458,268.3664,0,U,54088,999,3414,.78638E-4,.964E-5,0
STARLINK-5143,2022-136AQ,2023-05-28T21:11:43.946592,15.08844166,.0001007,53.2171,214.1249,92.5409,267.5699,0,U,54089,999,3410,.24513E-4,.102E-5,0
STARLINK-5177,2022-136AR,2023-05-28T21:17:02.626944,15.08839721,.0001004,53.2172,214.1493,91.8774,268.2333,0,U,54090,999,3410,.42638E-4,.391E-5,0
STARLINK-5221,2022-136AS,2023-05-28T20:57:11.839680,15.08840648,.0001091,53.2163,214.0564,92.0960,268.0157,0,U,54091,999,3363,.33061E-4,.238E-5,0
STARLINK-5190,2022-136AT,2023-05-28T22:57:53.720928,15.08561343,.0003278,53.2168,213.8723,124.8864,235.2437,0,U,54092,999,3411,.42325E-2,.67204E-3,0
STARLINK-5213,2022-136AU,2023-05-29T04:52:43.153536,15.08859246,.0001383,53.2147,212.5665,97.8020,262.3129,0,U,54093,999,3415,.23141E-3,.3399E-4,0
STARLINK-5219,2022-136AV,2023-05-29T03:27:58.262976,15.08838647,.0000921,53.2170,212.9123,92.6555,267.4542,0,U,54094,999,3414,.65707E-4,.758E-5,0
STARLINK-5193,2022-136AW,2023-05-28T14:23:39.540480,15.08846051,.000098,53.2147,215.1969,78.5809,281.5293,0,U,54095,999,3406,.63134E-4,.717E-5,0
STARLINK-5188,2022-136AX,2023-05-29T04:58:03.316512,15.08835241,.0001071,53.2167,212.5932,93.9523,266.1592,0,U,54096,999,3415,.94062E-4,.1209E-4,0
STARLINK-5197,2022-136AY,2023-05-28T19:27:47.216160,15.08840414,.000096,53.2157,189.4407,87.6586,272.4516,0,U,54097,999,3397,.18176E-4,.2E-7,0
STARLINK-5217,2022-136AZ,2023-05-28T14:18:21.317184,15.08840701,.0000966,53.2154,215.1724,96.4615,263.6487,0,U,54098,999,3359,.34829E-4,.267E-5,0
STARLINK-5198,2022-136BA,2023-05-28T10:56:58.341120,15.08843765,.0001041,53.2154,215.7251,83.1711,276.9399,0,U,54099,999,3357,.33825E-4,.251E-5,0
STARLINK-5185,2022-136BB,2023-05-28T11:18:11.922912,15.08840213,.0001075,53.2154,215.8138,99.2477,260.8636,0,U,54100,999,3357,.28732E-4,.17E-5,0
STARLINK-5204,2022-136BC,2023-05-28T20:51:13.938912,15.08843851,.0001009,53.2170,199.0783,84.8751,275.2357,0,U,54101,999,3384,.71717E-4,.854E-5,0
STARLINK-5179,2022-136BD,2023-05-28T11:02:16.427904,15.08844174,.0001076,53.2155,215.7462,80.4962,279.6152,0,U,54102,999,3357,.4314E-4,.399E-5,0
STARLINK-5200,2022-136BE,2023-05-28T20:01:36.952608,15.08838310,.0000968,53.2154,194.5750,91.8328,268.2775,0,U,54103,999,3437,.38753E-4,.329E-5,0
STARLINK-5203,2022-136BF,2023-05-28T19:29:07.213920,15.08841460,.0001008,53.2171,179.4483,85.6406,274.4701,0,U,54104,999,3458,.5032E-4,.513E-5,0
COSMOS 2561,2022-137A,2023-05-28T21:55:50.459808,15.56311341,.0011233,97.0528,230.9994,39.8601,320.3477,0,U,54109,999,3402,.29421E-3,.20678E-3,0
COSMOS 2562,2022-137B,2023-05-28T21:17:26.648736,15.68667511,.0008411,97.1654,236.5062,242.4977,117.5430,0,U,54110,999,3418,.41852E-3,.47702E-3,0
ONEWEB-0490,2022-138A,2023-05-29T02:20:29.428512,13.19727153,.0002241,87.9214,166.8159,86.7079,273.4310,0,U,54113,999,3062,.66024E-4,.39E-6,0
ONEWEB-0492,2022-138B,2023-05-28T14:09:35.085024,13.19722716,.0002397,87.9193,166.9119,81.9248,278.2156,0,U,54114,999,2969,.13566E-3,.67E-6,0
ONEWEB-0495,2022-138C,2023-05-28T19:09:50.460480,13.19725445,.0002564,87.9261,166.8504,86.5272,273.6154,0,U,54115,999,2970,.14791E-3,.72E-6,0
ONEWEB-0497,2022-138D,2023-05-28T19:25:00.077952,13.19726697,.0002246,87.9263,166.8368,87.6507,272.4883,0,U,54116,999,2969,.7038E-4,.41E-6,0
ONEWEB-0499,2022-138E,2023-05-28T19:00:44.921376,13.19725091,.0002594,87.9199,166.8863,102.8271,257.3152,0,U,54117,999,3057,.27751E-4,.24E-6,0
ONEWEB-0500,2022-138F,2023-05-28T19:06:47.665728,13.19726313,.0002048,87.9187,166.8452,90.7229,269.4138,0,U,54118,999,3058,-.79284E-4,-.19E-6,0
ONEWEB-0501,2022-138G,2023-05-28T14:21:44.257824,13.19725563,.0002801,87.9221,166.8873,83.8825,276.2627,0,U,54119,999,2966,.15446E-3,.75E-6,0
ONEWEB-0502,2022-138H,2023-05-28T19:28:02.199648,13.19725234,.0002598,87.9189,166.8485,88.4729,271.6701,0,U,54120,999,2971,-.10847E-3,-.3E-6,0
ONEWEB-0503,2022-138J,2023-05-28T19:12:51.160896,13.19722895,.0002463,87.9225,166.8553,90.9401,269.2014,0,U,54121,999,2970,.19488E-4,.21E-6,0
ONEWEB-0504,2022-138K,2023-05-28T18:54:41.054688,13.19724570,.000255,87.9215,166.8933,94.9078,265.2346,0,U,54122,999,2971,-.11142E-3,-.32E-6,0
ONEWEB-0505,2022-138L,2023-05-28T18:48:36.599616,13.19726406,.0002518,87.9190,166.8497,97.1156,263.0263,0,U,54123,999,3056,.70301E-4,.41E-6,0
