STARLINK-5184           
1 54087U 22136AN  23148.96044791  .00000887  00000+0  73781-4 0  9998
2 54087  53.2172 213.8959 0001005  87.2380 272.8727 15.08839979 34110
STARLINK-5153           
1 54088U 22136AP  23149.17021799  .00000964  00000+0  78638-4 0  9998
2 54088  53.2151 213.0704 0001137  91.7458 268.3664 15.08843352 34143
STARLINK-5143           
1 54089U 22136AQ  23148.88314753  .00000102  00000+0  24513-4 0  9998
2 54089  53.2171 214.1249 0001007  92.5409 267.5699 15.08844166 34102
STARLINK-5177           
1 54090U 22136AR  23148.88683596  .00000391  00000+0  42638-4 0  9992
2 54090  53.2172 214.1493 0001004  91.8774 268.2333 15.08839721 34104
STARLINK-5221           
1 54091U 22136AS  23148.87305370  .00000238  00000+0  33061-4 0  9993
2 54091  53.2163 214.0564 0001091  92.0960 268.0157 15.08840648 33638
STARLINK-5190           
1 54092U 22136AT  23148.95687177  .00067204  00000+0  42325-2 0  9998
2 54092  53.2168 213.8723 0003278 124.8864 235.2437 15.08561343 34117
STARLINK-5213           
1 54093U 22136AU  23149.20327724  .00003399  00000+0  23141-3 0  9998
2 54093  53.2147 212.5665 0001383  97.8020 262.3129 15.08859246 34159
STARLINK-5219           
1 54094U 22136AV  23149.14442434  .00000758  00000+0  65707-4 0  9999
2 54094  53.2170 212.9123 0000921  92.6555 267.4542 15.08838647 34148
STARLINK-5193           
1 54095U 22136AW  23148.59976320  .00000717  00000+0  63134-4 0  9991
2 54095  53.2147 215.1969 0000980  78.5809 281.5293 15.08846051 34065
STARLINK-5188           
1 54096U 22136AX  23149.20698283  .00001209  00000+0  94062-4 0  9991
2 54096  53.2167 212.5932 0001071  93.9523 266.1592 15.08835241 34155
STARLINK-5197           
1 54097U 22136AY  23148.81096315  .00000002  00000+0  18176-4 0  9998
2 54097  53.2157 189.4407 0000960  87.6586 272.4516 15.08840414 33972
STARLINK-5217           
1 54098U 22136AZ  23148.59608006  .00000267  00000+0  34829-4 0  9996
2 54098  53.2154 215.1724 0000966  96.4615 263.6487 15.08840701 33592
STARLINK-5198           
1 54099U 22136BA  23148.45623080  .00000251  00000+0  33825-4 0  9999
2 54099  53.2154 215.7251 0001041  83.1711 276.9399 15.08843765 33579
STARLINK-5185           
1 54100U 22136BB  23148.47097133  .00000170  00000+0  28732-4 0  9999
2 54100  53.2154 215.8138 0001075  99.2477 260.8636 15.08840213 33572
STARLINK-5204           
1 54101U 22136BC  23148.86891133  .00000854  00000+0  71717-4 0  9995
2 54101  53.2170 199.0783 0001009  84.8751 275.2357 15.08843851 33843
STARLINK-5179           
1 54102U 22136BD  23148.45991236  .00000399  00000+0  43140-4 0  9999
2 54102  53.2155 215.7462 0001076  80.4962 279.6152 15.08844174 33577
STARLINK-5200           
1 54103U 22136BE  23148.83445547  .00000329  00000+0  38753-4 0  9998
2 54103  53.2154 194.5750 0000968  91.8328 268.2775 15.08838310 34371
STARLINK-5203           
1 54104U 22136BF  23148.81188905  .00000513  00000+0  50320-4 0  9998
2 54104  53.2171 179.4483 0001008  85.6406 274.4701 15.08841460 34581
COSMOS 2561             
1 54109U 22137A   23148.91377847  .00020678  00000+0  29421-3 0  9991
2 54109  97.0528 230.9994 0011233  39.8601 320.3477 15.56311341 34020
COSMOS 2562             
1 54110U 22137B   23148.88711399  .00047702  00000+0  41852-3 0  9992
2 54110  97.1654 236.5062 0008411 242.4977 117.5430 15.68667511 34181
ONEWEB-0490             
1 54113U 22138A   23149.09756283  .00000039  00000+0  66024-4 0  9992
2 54113  87.9214 166.8159 0002241  86.7079 273.4310 13.19727153 30629
ONEWEB-0492             
1 54114U 22138B   23148.58998941  .00000067  00000+0  13566-3 0  9998
2 54114  87.9193 166.9119 0002397  81.9248 278.2156 13.19722716 29696
ONEWEB-0495             
1 54115U 22138C   23148.79850070  .00000072  00000+0  14791-3 0  9999
2 54115  87.9261 166.8504 0002564  86.5272 273.6154 13.19725445 29705
ONEWEB-0497             
1 54116U 22138D   23148.80902868  .00000041  00000+0  70380-4 0  9998
2 54116  87.9263 166.8368 0002246  87.6507 272.4883 13.19726697 29690
ONEWEB-0499             
1 54117U 22138E   23148.79218659  .00000024  00000+0  27751-4 0  9990
2 54117  87.9199 166.8863 0002594 102.8271 257.3152 13.19725091 30570
ONEWEB-0500             
1 54118U 22138F   23148.79638502 -.00000019  00000+0 -79284-4 0  9998
2 54118  87.9187 166.8452 0002048  90.7229 269.4138 13.19726313 30581
ONEWEB-0501             
1 54119U 22138G   23148.59842891  .00000075  00000+0  15446-3 0  9994
2 54119  87.9221 166.8873 0002801  83.8825 276.2627 13.19725563 29662
ONEWEB-0502             
1 54120U 22138H   23148.81113657 -.00000030  00000+0 -10847-3 0  9995
2 54120  87.9189 166.8485 0002598  88.4729 271.6701 13.19725234 29716
ONEWEB-0503             
1 54121U 22138J   23148.80059214  .00000021  00000+0  19488-4 0  9992
2 54121  87.9225 166.8553 0002463  90.9401 269.2014 13.19722895 29709
ONEWEB-0504             
1 54122U 22138K   23148.78797517 -.00000032  00000+0 -11142-3 0  9997
2 54122  87.9215 166.8933 0002550  94.9078 265.2346 13.19724570 29719
ONEWEB-0505             
1 54123U 22138L   23148.78375694  .00000041  00000+0  70301-4 0  9997
2 54123  87.9190 166.8497 0002518  97.1156 263.0263 13.19726406 30562
